[{"OBJECT_NAME":"STARLINK-36437","OBJECT_ID":"2026-008W","EPOCH":"2026-03-09T10:04:35.305248","MEAN_MOTION":15.27595844,"ECCENTRICITY":0.00014925,"INCLINATION":42.9983,"RA_OF_ASC_NODE":206.5018,"ARG_OF_PERICENTER":276.6347,"MEAN_ANOMALY":83.4335,"EPHEMERIS_TYPE":0,"CLASSIFICATION_TYPE":"U","NORAD_CAT_ID":67465,"ELEMENT_SET_NO":999,"REV_AT_EPOCH":953,"BSTAR":0.0010159674,"MEAN_MOTION_DOT":0.00027814,"MEAN_MOTION_DDOT":0},{"OBJECT_NAME":"CXBN","OBJECT_ID":"2012-048E","EPOCH":"2026-03-09T15:19:34.514688","MEAN_MOTION":15.19824857,"ECCENTRICITY":0.0107387,"INCLINATION":64.6612,"RA_OF_ASC_NODE":146.5396,"ARG_OF_PERICENTER":203.7806,"MEAN_ANOMALY":155.8339,"EPHEMERIS_TYPE":0,"CLASSIFICATION_TYPE":"U","NORAD_CAT_ID":38762,"ELEMENT_SET_NO":999,"REV_AT_EPOCH":10314,"BSTAR":0.00060054,"MEAN_MOTION_DOT":0.00014901,"MEAN_MOTION_DDOT":0}]
